NORAD_CAT_ID,OBJECT_NAME,OBJECT_TYPE,EPOCH,MEAN_MOTION,ECCENTRICITY,INCLINATION,RA_OF_ASC_NODE,ARG_OF_PERICENTER,MEAN_ANOMALY,BSTAR,MEAN_MOTION_DOT,MEAN_MOTION_DDOT,TLE_LINE0,TLE_LINE1,TLE_LINE2,SEMIMAJOR_AXIS,PERIOD,APOGEE,PERIGEE,DECAYED
51803.0,STARLINK-3544,PAYLOAD,2022-03-02 16:00:00,15.81585027,0.0001038,53.218,118.8382,60.5405,249.1976,-0.0044008,-0.00818044,0.0,0 STARLINK-3544,1 51803U 22017AM  22061.66667824 -.00818044  00000-0 -44008-2 0  9990,2 51803  53.2180 118.8382 0001038  60.5405 249.1976 15.81585027  2025,6704.095,91.048,326.656,325.264,0.0
51803.0,STARLINK-3544,PAYLOAD,2022-03-03 04:00:00,15.80683617,0.0001202,53.2175,116.3319,59.8574,217.5811,-0.0049543999999999,-0.00876956,0.0,0 STARLINK-3544,1 51803U 22017AM  22062.16667824 -.00876956  00000-0 -49544-2 0  9992,2 51803  53.2175 116.3319 0001202  59.8574 217.5811 15.80683617  2090,6706.643,91.1,329.314,327.702,0.0
51803.0,STARLINK-3544,PAYLOAD,2022-03-03 14:00:01,15.79891324,0.0001107,53.2174,114.2507,70.9448,58.2942,-0.0050857,-0.00868625,0.0,0 STARLINK-3544,1 51803U 22017AM  22062.58334491 -.00868625  00000-0 -50857-2 0  9992,2 51803  53.2174 114.2507 0001107  70.9448  58.2942 15.79891324  1428,6708.885,91.146,331.49300000000005,330.0080000000001,0.0
51803.0,STARLINK-3544,PAYLOAD,2022-03-03 22:00:00,15.79266462,0.0001173,53.2177,112.5834,66.0449,159.7825,-0.0052797,-0.00875542,0.0,0 STARLINK-3544,1 51803U 22017AM  22062.91667824 -.00875542  00000-0 -52797-2 0  9999,2 51803  53.2177 112.5834 0001173  66.0449 159.7825 15.79266462  1476,6710.655,91.182,333.307,331.733,0.0
51803.0,STARLINK-3544,PAYLOAD,2022-03-04 04:00:00,15.78795171,0.0001323,53.2178,111.3353,58.1209,149.6513,-0.005393,-0.00875353,0.0,0 STARLINK-3544,1 51803U 22017AM  22063.16667824 -.00875353  00000-0 -53930-2 0  9997,2 51803  53.2178 111.3353 0001323  58.1209 149.6513 15.78795171  2255,6711.99,91.209,334.74300000000005,332.967,0.0
51803.0,STARLINK-3544,PAYLOAD,2022-03-04 14:00:01,15.7800543,0.0001137,53.2174,109.2596,54.6149,2.1869,-0.0055593999999999,-0.00870968,0.0,0 STARLINK-3544,1 51803U 22017AM  22063.58335648 -.00870968  00000-0 -55594-2 0  9994,2 51803  53.2174 109.2596 0001137  54.6149   2.1869 15.78005430  1587,6714.229,91.254,336.858,335.331,0.0
51803.0,STARLINK-3544,PAYLOAD,2022-03-04 20:00:03,15.77536463,0.0001139,53.2174,108.0124,50.3844,347.2941,-0.0057138999999999,-0.00875906,0.0,0 STARLINK-3544,1 51803U 22017AM  22063.83336806 -.00875906  00000-0 -57139-2 0  9993,2 51803  53.2174 108.0124 0001139  50.3844 347.2941 15.77536463  2363,6715.56,91.282,338.19,336.66,0.0
51803.0,STARLINK-3544,PAYLOAD,2022-03-04 22:00:00,15.77377045,0.0001256,53.2174,107.597,52.9365,98.1208,-0.0057275,-0.00872152,0.0,0 STARLINK-3544,1 51803U 22017AM  22063.91667824 -.00872152  00000-0 -57275-2 0  9990,2 51803  53.2174 107.5970 0001256  52.9365  98.1208 15.77377045  1638,6716.013000000001,91.291,338.721,337.034,0.0
51803.0,STARLINK-3544,PAYLOAD,2022-03-05 06:00:00,15.767494400000002,0.0001278,53.2175,105.9387,60.5945,184.0257,-0.0059116,-0.0087493,0.0,0 STARLINK-3544,1 51803U 22017AM  22064.25001157 -.00874930  00000-0 -59116-2 0  9991,2 51803  53.2175 105.9387 0001278  60.5945 184.0257 15.76749440  1681,6717.795,91.327,340.51800000000014,338.801,0.0
51803.0,STARLINK-3544,PAYLOAD,2022-03-05 14:00:01,15.76118499,9.82e-05,53.2173,104.2827,75.4157,262.0122,-0.0060534,-0.0087136,0.0,0 STARLINK-3544,1 51803U 22017AM  22064.58334491 -.00871360  00000-0 -60534-2 0  9997,2 51803  53.2173 104.2827 0000982  75.4157 262.0122 15.76118499  1740,6719.587,91.364,342.112,340.792,0.0
51803.0,STARLINK-3544,PAYLOAD,2022-03-05 20:00:01,15.75650554,0.0001084,53.2176,103.039,56.7386,259.7981,-0.0062341,-0.00878252,0.0,0 STARLINK-3544,1 51803U 22017AM  22064.83334491 -.00878252  00000-0 -62341-2 0  9990,2 51803  53.2176 103.0390 0001084  56.7386 259.7981 15.75650554  2520,6720.918000000002,91.391,343.511,342.0540000000001,0.0
51803.0,STARLINK-3544,PAYLOAD,2022-03-05 22:00:01,15.75489117,0.0001131,53.2175,102.6245,51.3006,18.2457,-0.0062276,-0.008718,0.0,0 STARLINK-3544,1 51803U 22017AM  22064.91668981 -.00871800  00000-0 -62276-2 0  9992,2 51803  53.2175 102.6245 0001131  51.3006  18.2457 15.75489117  1795,6721.377,91.4,344.00199999999984,342.482,0.0
51803.0,STARLINK-3544,PAYLOAD,2022-03-06 14:00:01,15.74231578,0.0001164,53.2172,99.3192,70.8973,180.4162,-0.006592,-0.0087312999999999,0.0,0 STARLINK-3544,1 51803U 22017AM  22065.58334491 -.00873130  00000-0 -65920-2 0  9999,2 51803  53.2172  99.3192 0001164  70.8973 180.4162 15.74231578  1891,6724.956,91.473,347.603,346.038,0.0
51803.0,STARLINK-3544,PAYLOAD,2022-03-06 22:00:00,15.73424553,0.0001193,53.2173,97.6659,62.9364,278.191,-0.0023497,-0.00321184,0.0,0 STARLINK-3544,1 51803U 22017AM  22065.91667824 -.00321184  00000-0 -23497-2 0  9995,2 51803  53.2173  97.6659 0001193  62.9364 278.1910 15.73424553  1958,6727.255,91.52,349.923,348.31699999999995,0.0
51803.0,STARLINK-3544,PAYLOAD,2022-03-07 04:00:00,15.73206283,0.0001436,53.2175,96.4289,46.02,271.9265,-2.4013e-05,-3.99e-05,0.0,0 STARLINK-3544,1 51803U 22017AM  22066.16667824 -.00003990  00000-0 -24013-4 0  9992,2 51803  53.2175  96.4289 0001436  46.0200 271.9265 15.73206283  2737,6727.877,91.533,350.708,348.776,0.0
51803.0,STARLINK-3544,PAYLOAD,2022-03-07 12:00:00,15.73203382,0.0001491,53.2173,94.7812,40.4473,6.4334,1.3043e-05,1.211e-05,0.0,0 STARLINK-3544,1 51803U 22017AM  22066.50001157  .00001211  00000-0  13043-4 0  9994,2 51803  53.2173  94.7812 0001491  40.4473   6.4334 15.73203382  2048,6727.886,91.533,350.754,348.747,0.0
51803.0,STARLINK-3544,PAYLOAD,2022-03-07 20:00:01,15.7326812,0.000128,53.2202,93.1359,58.1933,77.8556,-0.0005082,-0.00071545,0.0,0 STARLINK-3544,1 51803U 22017AM  22066.83334491 -.00071545  00000-0 -50820-3 0  9992,2 51803  53.2202  93.1359 0001280  58.1933  77.8556 15.73268120  2839,6727.701,91.529,350.427,348.705,0.0
51803.0,STARLINK-3544,PAYLOAD,2022-03-07 22:00:00,15.73240269,0.000125,53.2199,92.7225,62.1074,186.1984,-0.00027229,-0.00038724,0.0,0 STARLINK-3544,1 51803U 22017AM  22066.91667824 -.00038724  00000-0 -27229-3 0  9999,2 51803  53.2199  92.7225 0001250  62.1074 186.1984 15.73240269  2102,6727.78,91.531,350.486,348.80400000000014,0.0
51803.0,STARLINK-3544,PAYLOAD,2022-03-08 04:00:00,15.73194055,0.0001449,53.2207,91.4876,60.2064,164.7858,-0.00016955,-0.0002434,0.0,0 STARLINK-3544,1 51803U 22017AM  22067.16667824 -.00024340  00000-0 -16955-3 0  9990,2 51803  53.2207  91.4876 0001449  60.2064 164.7858 15.73194055  2886,6727.9119999999975,91.534,350.75199999999984,348.802,0.0
51803.0,STARLINK-3544,PAYLOAD,2022-03-08 14:00:01,15.73181508,0.0001601,53.2199,89.4274,53.1248,12.9835,0.00035784,0.00049859,0.0,0 STARLINK-3544,1 51803U 22017AM  22067.58334491  .00049859  00000-0  35784-3 0  9998,2 51803  53.2199  89.4274 0001601  53.1248  12.9835 15.73181508  2215,6727.948,91.534,350.89,348.736,0.0
51803.0,STARLINK-3544,PAYLOAD,2022-03-08 20:00:01,15.73207908,0.0001314,53.2196,88.1889,59.4291,343.3644,-0.000414,-0.0005834,0.0,0 STARLINK-3544,1 51803U 22017AM  22067.83334491 -.00058340  00000-0 -41400-3 0  9995,2 51803  53.2196  88.1889 0001314  59.4291 343.3644 15.73207908  2995,6727.873000000001,91.533,350.622,348.85400000000016,0.0
51803.0,STARLINK-3544,PAYLOAD,2022-03-08 22:00:00,15.73172027,0.0001268,53.2192,87.7762,60.0032,95.0319,1.2523e-05,1.136e-05,0.0,0 STARLINK-3544,1 51803U 22017AM  22067.91667824  .00001136  00000-0  12523-4 0  9997,2 51803  53.2192  87.7762 0001268  60.0032  95.0319 15.73172027  2268,6727.975,91.535,350.6930000000001,348.987,0.0
51803.0,STARLINK-3544,PAYLOAD,2022-03-09 04:00:00,15.73178404,0.0001274999999999,53.2192,86.54,58.6294,73.0723,0.00014156,0.00019274,0.0,0 STARLINK-3544,1 51803U 22017AM  22068.16667824  .00019274  00000-0  14156-3 0  9990,2 51803  53.2192  86.5400 0001275  58.6294  73.0723 15.73178404  3042,6727.956999999999,91.534,350.68,348.964,0.0
51803.0,STARLINK-3544,PAYLOAD,2022-03-09 12:00:00,15.73179303,0.0001353,53.2185,84.8923,48.2319,172.3962,0.00069409,0.00097845,0.0,0 STARLINK-3544,1 51803U 22017AM  22068.50001157  .00097845  00000-0  69409-3 0  9990,2 51803  53.2185  84.8923 0001353  48.2319 172.3962 15.73179303  3097,6727.954000000002,91.534,350.72900000000016,348.909,0.0
51803.0,STARLINK-3544,PAYLOAD,2022-03-09 14:00:01,15.73223876,0.0001332,53.2184,84.4796,46.4822,286.3679,0.00016552,0.00022696,0.0,0 STARLINK-3544,1 51803U 22017AM  22068.58334491  .00022696  00000-0  16552-3 0  9991,2 51803  53.2184  84.4796 0001332  46.4822 286.3679 15.73223876  2372,6727.8269999999975,91.532,350.588,348.796,0.0
51803.0,STARLINK-3544,PAYLOAD,2022-03-09 20:00:01,15.7323618,0.0001147,53.2189,83.2409,54.0871,255.4965,-0.00010844,-0.00015833,0.0,0 STARLINK-3544,1 51803U 22017AM  22068.83334491 -.00015833  00000-0 -10844-3 0  9994,2 51803  53.2189  83.2409 0001147  54.0871 255.4965 15.73236180  3152,6727.792,91.531,350.42900000000014,348.885,0.0
51803.0,STARLINK-3544,PAYLOAD,2022-03-09 22:00:01,15.73199596,0.000108,53.2188,82.82799999999997,54.7607,7.1424,0.00042188,0.00059003,0.0,0 STARLINK-3544,1 51803U 22017AM  22068.91668981  .00059003  00000-0  42188-3 0  9998,2 51803  53.2188  82.8280 0001080  54.7607   7.1424 15.73199596  2423,6727.896,91.533,350.48800000000006,349.035,0.0
51803.0,STARLINK-3544,PAYLOAD,2022-03-10 14:00:01,15.73212965,0.0001168,53.2183,79.5311,39.5546,200.1437,-6.249100000000001e-05,-9.385e-05,0.0,0 STARLINK-3544,1 51803U 22017AM  22069.58334491 -.00009385  00000-0 -62491-4 0  9998,2 51803  53.2183  79.5311 0001168  39.5546 200.1437 15.73212965  2533,6727.858,91.532,350.509,348.93699999999984,0.0
51803.0,STARLINK-3544,PAYLOAD,2022-03-10 20:00:01,15.73196079,0.0001111,53.2185,78.2925,51.3523,165.06099999999995,-0.00012962,-0.00018767,0.0,0 STARLINK-3544,1 51803U 22017AM  22069.83334491 -.00018767  00000-0 -12962-3 0  9997,2 51803  53.2185  78.2925 0001111  51.3523 165.0610 15.73196079  3302,6727.906,91.533,350.519,349.024,0.0
